MEAN_MOTION;ECCENTRICITY;INCLINATION;RA_OF_ASC_NODE;ARG_OF_PERICENTER;MEAN_ANOMALY;BSTAR;MEAN_MOTION_DOT;MEAN_MOTION_DDOT;TYPE
14.34217814;0.0002148;86.3941;116.0424;105.4088;254.7345;1.6922E-5;6.7E-7;0;Iridium
14.3421793;0.0002176;86.3939;115.6631;105.5257;254.6179;2.0314E-5;7.7E-7;0;Iridium
14.34217936;0.0002175;86.3939;115.6339;105.4849;254.6588;2.015E-5;7.6E-7;0;Iridium
14.34218052;0.0002196;86.3937;115.2253;105.2738;254.8701;2.2817E-5;8.4E-7;0;Iridium
14.34218038;0.0002201;86.3937;115.1669;105.3871;254.7568;2.1436E-5;8.0E-7;0;Iridium
14.34218166;0.0002221;86.3936;114.8459;105.3652;254.7789;2.4628E-5;8.9E-7;0;Iridium
14.34218173;0.000222;86.3936;114.8167;105.427;254.7172;2.3849E-5;8.7E-7;0;Iridium
14.34218328;0.0002249;86.3935;114.408;105.0777;255.0667;2.6154E-5;9.3E-7;0;Iridium
14.34218494;0.0002281;86.3934;113.9995;104.8014;255.3435;2.7416E-5;9.7E-7;0;Iridium
14.3421866;0.0002309;86.3933;113.5909;104.5641;255.5811;2.702E-5;9.5E-7;0;Iridium
14.34218611;0.0002316;86.3932;113.5324;104.6356;255.5096;2.4022E-5;8.7E-7;0;Iridium
14.34218783;0.0002335;86.3932;113.1531;104.2789;255.8666;2.4074E-5;8.7E-7;0;Iridium
14.34218783;0.0002335;86.3932;113.1531;104.2789;255.8666;2.4074E-5;8.7E-7;0;Iridium
14.34218785;0.0002337;86.3932;113.1239;104.2471;255.8984;2.3335E-5;8.5E-7;0;Iridium
14.34218934;0.0002366;86.393;112.6569;103.8876;256.2583;2.0441E-5;7.7E-7;0;Iridium
14.34216175;0.0002382;86.3929;112.3063;103.6401;256.506;1.6937E-5;6.7E-7;0;Iridium
14.34216223;0.0002389;86.3928;112.1896;103.442;256.7042;1.6437E-5;6.6E-7;0;Iridium
14.34216181;0.0002396;86.3928;111.8977;103.1748;256.9715;-3.3047E-6;1.1E-7;0;Iridium
14.34216189;0.0002406;86.3927;111.7226;102.9371;257.2094;-2.977E-6;1.1E-7;0;Iridium
14.34216218;0.0002418;86.3927;111.489;102.7739;257.3727;-2.7125E-6;1.2E-7;0;Iridium
14.34216214;0.0002428;86.3926;111.3138;102.5297;257.6171;-2.5208E-6;1.3E-7;0;Iridium
14.34216395;0.0002443;86.3926;111.0511;102.3377;257.8092;1.2839E-5;5.6E-7;0;Iridium
14.34216415;0.0002461;86.3925;110.9051;102.1264;258.0207;1.394E-5;5.9E-7;0;Iridium
14.34216477;0.0002474;86.3925;110.6423;101.8701;258.2772;1.5227E-5;6.2E-7;0;Iridium
14.3421648;0.0002475;86.3925;110.6131;101.8303;258.317;1.5032E-5;6.2E-7;0;Iridium
14.34216536;0.0002484;86.3924;110.4672;101.6313;258.5162;1.796E-5;7.0E-7;0;Iridium
14.34216612;0.0002494;86.3924;110.2336;101.4784;258.6692;2.0236E-5;7.6E-7;0;Iridium
14.34216614;0.0002495;86.3924;110.2044;101.433;258.7146;1.9808E-5;7.5E-7;0;Iridium
14.3421675;0.0002517;86.3923;109.7956;100.9418;259.2061;2.3471E-5;8.6E-7;0;Iridium
14.34216812;0.0002526;86.3922;109.6497;100.6822;259.4659;2.555E-5;9.1E-7;0;Iridium
14.34216912;0.0002535;86.3922;109.3869;100.3977;259.7505;2.7017E-5;9.5E-7;0;Iridium
14.34216952;0.0002544;86.3921;109.2117;100.1791;259.9692;2.6393E-5;9.4E-7;0;Iridium
14.34217007;0.0002553;86.3921;108.9782;99.9249;260.2235;2.5311E-5;9.1E-7;0;Iridium
14.3421704;0.0002563;86.3921;108.803;99.7037;260.4448;2.411E-5;8.7E-7;0;Iridium
14.34217091;0.0002575;86.392;108.5402;99.4563;260.6924;2.215E-5;8.2E-7;0;Iridium
14.34217109;0.0002583;86.392;108.3943;99.2446;260.9042;2.0556E-5;7.7E-7;0;Iridium
14.34217149;0.0002593;86.392;108.1607;98.9718;261.1771;1.8436E-5;7.1E-7;0;Iridium
14.34217216;0.0002602;86.392;107.9563;98.6272;261.5219;1.8659E-5;7.2E-7;0;Iridium
14.34217269;0.0002612;86.392;107.6935;98.3065;261.8427;1.6784E-5;6.7E-7;0;Iridium
14.34217334;0.0002618;86.392;107.5476;98.078;262.0713;1.8543E-5;7.2E-7;0;Iridium
14.34217421;0.0002627;86.392;107.2848;97.8532;262.2963;1.822E-5;7.1E-7;0;Iridium
14.34217463;0.0002636;86.392;107.1388;97.6474;262.5021;1.8555E-5;7.2E-7;0;Iridium
14.34217523;0.0002643;86.392;106.876;97.3192;262.8304;1.6538E-5;6.6E-7;0;Iridium
14.34217578;0.0002652;86.392;106.7008;97.0603;263.0895;1.6749E-5;6.7E-7;0;Iridium
14.34217584;0.0002655;86.392;106.6425;96.9887;263.161;1.56E-5;6.3E-7;0;Iridium
14.34217635;0.0002663;86.392;106.2921;96.4246;263.7253;1.3772E-5;5.8E-7;0;Iridium
14.34217643;0.0002669;86.392;106.0293;96.102;264.0479;1.0579E-5;4.9E-7;0;Iridium
14.34217643;0.0002669;86.392;106.0293;96.102;264.0479;1.0579E-5;4.9E-7;0;Iridium
14.342177;0.000268;86.392;105.6497;95.6654;264.4848;1.0567E-5;4.9E-7;0;Iridium
14.34217726;0.000269;86.392;105.4454;95.3173;264.833;1.0149E-5;4.8E-7;0;Iridium
14.3421778;0.0002692;86.392;105.241;94.9939;265.1564;1.2141E-5;5.4E-7;0;Iridium
14.34217845;0.0002698;86.392;105.0366;94.5821;265.5683;1.4207E-5;6.0E-7;0;Iridium
14.34217937;0.0002701;86.392;104.7738;94.1507;265.9998;1.6927E-5;6.7E-7;0;Iridium
14.3421798;0.0002704;86.392;104.6278;93.8915;266.259;1.8417E-5;7.1E-7;0;Iridium
14.34218073;0.0002705;86.392;104.365;93.5481;266.6025;2.0448E-5;7.7E-7;0;Iridium
14.34218138;0.000271;86.392;104.1898;93.3351;266.8154;2.234E-5;8.2E-7;0;Iridium
14.34218194;0.0002706;86.392;103.9563;92.9188;267.2317;2.2902E-5;8.4E-7;0;Iridium
14.34218236;0.0002711;86.392;103.7811;92.6212;267.5294;2.3167E-5;8.5E-7;0;Iridium
14.34218267;0.0002716;86.3922;103.5476;92.2898;267.8609;2.199E-5;8.1E-7;0;Iridium
14.34218306;0.0002721;86.3922;103.3725;91.9804;268.1703;2.202E-5;8.1E-7;0;Iridium
14.34218368;0.0002721;86.3922;103.1097;91.616;268.5347;2.1198E-5;7.9E-7;0;Iridium
14.34218368;0.0002721;86.3922;103.1097;91.616;268.5347;2.1198E-5;7.9E-7;0;Iridium
14.34218412;0.0002719;86.3922;102.9346;91.1369;269.0138;2.0776E-5;7.8E-7;0;Iridium
14.34218482;0.0002714;86.3923;102.7009;90.5908;269.5599;2.0038E-5;7.6E-7;0;Iridium
14.34218518;0.000272;86.3923;102.5258;90.4321;269.7187;1.902E-5;7.3E-7;0;Iridium
14.342187;0.0002739;86.3924;102.1172;90.3688;269.7822;2.0486E-5;7.7E-7;0;Iridium
14.34218796;0.0002744;86.3925;101.8545;90.2463;269.9047;1.9862E-5;7.5E-7;0;Iridium
14.34218912;0.0002741;86.3926;101.4458;89.5431;270.6079;1.8013E-5;7.0E-7;0;Iridium
14.34218956;0.0002743;86.3926;101.2706;89.2731;270.8779;1.7216E-5;6.8E-7;0;Iridium
14.3421898;0.0002741;86.3927;101.0371;88.9323;271.2187;1.4689E-5;6.1E-7;0;Iridium
14.34219004;0.0002745;86.3927;100.862;88.6287;271.5223;1.3615E-5;5.8E-7;0;Iridium
14.34219035;0.0002745;86.3928;100.6284;88.2957;271.8553;1.2357E-5;5.4E-7;0;Iridium
14.34219074;0.0002747;86.3928;100.4241;88.0022;272.1488;1.2009E-5;5.3E-7;0;Iridium
14.34219119;0.0002743;86.3929;100.1905;87.6106;272.5404;1.2165E-5;5.4E-7;0;Iridium
14.34219119;0.0002743;86.3929;100.1905;87.6106;272.5404;1.2165E-5;5.4E-7;0;Iridium
14.34219171;0.000274;86.3929;100.0154;87.2639;272.8871;1.3425E-5;5.7E-7;0;Iridium
14.34219279;0.0002733;86.393;99.7819;86.8839;273.2669;1.6904E-5;6.7E-7;0;Iridium
14.34219279;0.0002733;86.393;99.7819;86.8839;273.2669;1.6904E-5;6.7E-7;0;Iridium
14.3421934;0.0002732;86.3929;99.6067;86.5237;273.6271;1.8608E-5;7.2E-7;0;Iridium
14.34213461;0.0002806;86.3942;99.3715;78.6471;281.5039;2.097E-5;7.9E-7;0;Iridium
14.34214408;0.00026;86.3934;99.1396;88.1773;271.9721;2.1273E-5;7.9E-7;0;Iridium
14.3421565;0.0002695;86.3929;98.9358;85.6094;274.541;1.1425E-5;5.2E-7;0;Iridium
14.34215666;0.0002703;86.3931;98.7605;85.123;275.0274;1.2326E-5;5.4E-7;0;Iridium
14.34215759;0.0002702;86.3931;98.4392;84.6026;275.5478;1.2909E-5;5.6E-7;0;Iridium
14.34215759;0.0002702;86.3931;98.4392;84.6026;275.5478;1.2909E-5;5.6E-7;0;Iridium
14.34215857;0.0002696;86.3932;98.3516;84.4102;275.7401;2.0921E-5;7.8E-7;0;Iridium
14.3421593;0.0002692;86.3933;98.089;84.0345;276.1157;2.2375E-5;8.2E-7;0;Iridium
14.34215991;0.000269;86.3933;97.9138;83.7169;276.4333;2.2902E-5;8.4E-7;0;Iridium
14.34216124;0.0002685;86.3934;97.6512;83.3357;276.8145;2.7748E-5;9.7E-7;0;Iridium
14.34216187;0.0002681;86.3934;97.5052;83.095;277.0551;2.7538E-5;9.7E-7;0;Iridium
14.34216307;0.0002673;86.3935;97.155;82.6433;277.5066;2.7686E-5;9.7E-7;0;Iridium
14.34216338;0.0002669;86.3935;97.0966;82.5665;277.5834;2.7154E-5;9.6E-7;0;Iridium
14.34216407;0.000266;86.3936;96.834;82.3127;277.8371;2.4328E-5;8.8E-7;0;Iridium
14.34216434;0.000266;86.3937;96.6589;82.1626;277.9872;2.2108E-5;8.2E-7;0;Iridium
14.34216338;0.0002648;86.3938;96.4255;81.8607;278.2889;9.8669E-6;4.7E-7;0;Iridium
14.34214968;0.0002666;86.3938;96.2503;81.5818;278.5679;6.4348E-6;3.8E-7;0;Iridium
14.34214995;0.0002658;86.3939;95.9877;80.9941;279.1556;5.2832E-6;3.5E-7;0;Iridium
14.34215012;0.0002651;86.394;95.8419;80.7814;279.3681;4.6515E-6;3.3E-7;0;Iridium
14.34215062;0.000264;86.3941;95.5792;80.4004;279.749;3.301E-6;2.9E-7;0;Iridium
14.34215061;0.000264;86.3941;95.55;80.3876;279.7618;3.2978E-6;2.9E-7;0;Iridium
14.34215086;0.0002632;86.3941;95.4041;80.2242;279.9251;2.6396E-6;2.7E-7;0;Iridium
14.34215319;0.0002617;86.3942;95.1999;79.9382;280.2109;1.9879E-5;7.5E-7;0;Iridium
14.34215319;0.0002617;86.3942;95.1999;79.9382;280.2109;1.9879E-5;7.5E-7;0;Iridium
14.34215378;0.000261;86.3943;94.9956;79.6632;280.4857;1.9083E-5;7.3E-7;0;Iridium
14.34215474;0.0002596;86.3944;94.733;79.2212;280.9276;2.0972E-5;7.9E-7;0;Iridium
14.34215525;0.0002589;86.3944;94.5871;78.9862;281.1625;2.0675E-5;7.8E-7;0;Iridium
14.34215587;0.0002575;86.3945;94.3537;78.7031;281.4454;2.0976E-5;7.9E-7;0;Iridium
14.34215634;0.0002566;86.3946;94.1495;78.4624;281.686;2.0502E-5;7.7E-7;0;Iridium
14.34215686;0.0002554;86.3946;93.9453;78.2393;281.9089;2.154E-5;8.0E-7;0;Iridium
14.34215695;0.000255;86.3947;93.7411;78.4219;281.7263;1.9476E-5;7.4E-7;0;Iridium
14.34215768;0.0002533;86.3947;93.5076;77.6516;282.4963;2.1046E-5;7.9E-7;0;Iridium
14.34215833;0.0002522;86.3949;93.1283;78.157;281.9908;2.1183E-5;7.9E-7;0;Iridium
14.3421591;0.0002499;86.395;92.6908;77.7893;282.3583;2.0484E-5;7.7E-7;0;Iridium
14.3421591;0.0002499;86.395;92.6908;77.7893;282.3583;2.0484E-5;7.7E-7;0;Iridium
14.34215984;0.0002488;86.3951;92.4866;77.52;282.6274;2.1635E-5;8.0E-7;0;Iridium
14.34216097;0.0002477;86.3952;92.2823;77.6147;282.5326;2.4289E-5;8.8E-7;0;Iridium
14.34216203;0.0002467;86.3952;92.0781;77.2683;282.8788;2.642E-5;9.4E-7;0;Iridium
14.34216321;0.0002455;86.3953;91.8739;77.2635;282.8835;2.9126E-5;1.01E-6;0;Iridium
14.34216379;0.0002445;86.3954;91.6405;77.1849;282.962;2.6607E-5;9.4E-7;0;Iridium
14.34216446;0.0002433;86.3955;91.4655;77.0185;283.1282;2.672E-5;9.5E-7;0;Iridium
